start=new Date('2021-10-04T00:00:00.000Z').valueOf();
sats=[{"MEAN_ANOMALY":"267.3836","FILE":"3143202","TLE_LINE1":"1 48283U 21036H   21276.86187945 -.00001467  00000-0 -79609-4 0  9998","SEMIMAJOR_AXIS":"6925.386","MEAN_MOTION":"15.06387905","REF_FRAME":"TEME","ELEMENT_SET_NO":"999","EPOCH":"2021-10-03T20:41:06.384480","OBJECT_ID":"2021-036H","REV_AT_EPOCH":"2447","RCS_SIZE":"LARGE","COUNTRY_CODE":"US","EPHEMERIS_TYPE":"0","OBJECT_NAME":"STARLINK-2516","ECCENTRICITY":"0.00014380","PERIOD":"95.593","SITE":"AFETR","CENTER_NAME":"EARTH","NORAD_CAT_ID":"48283","OBJECT_TYPE":"PAYLOAD","LAUNCH_DATE":"2021-04-29","TLE_LINE2":"2 48283  53.0627 144.3034 0001438  92.7318 267.3836 15.06387905 24471","MEAN_MOTION_DOT":"-0.00001467","PERIAPSIS":"546.255","MEAN_ELEMENT_THEORY":"SGP4","INCLINATION":"53.0627","TIME_SYSTEM":"UTC","BSTAR":"-0.00007960900000","MEAN_MOTION_DDOT":"0.0000000000000","CLASSIFICATION_TYPE":"U","GP_ID":"186142228","RA_OF_ASC_NODE":"144.3034","APOAPSIS":"548.246","ARG_OF_PERICENTER":"92.7318","DECAY_DATE":null},{"MEAN_MOTION_DOT":"-0.00001479","TLE_LINE2":"2 48284  53.0494 144.3576 0002311  77.2871 282.8376 15.06392203 24465","LAUNCH_DATE":"2021-04-29","PERIAPSIS":"545.637","MEAN_ELEMENT_THEORY":"SGP4","TIME_SYSTEM":"UTC","INCLINATION":"53.0494","MEAN_MOTION_DDOT":"0.0000000000000","BSTAR":"-0.00008037800000","CLASSIFICATION_TYPE":"U","GP_ID":"186142493","APOAPSIS":"548.838","RA_OF_ASC_NODE":"144.3576","ARG_OF_PERICENTER":"77.2871","DECAY_DATE":null,"MEAN_ANOMALY":"282.8376","TLE_LINE1":"1 48284U 21036J   21276.85819085 -.00001479  00000-0 -80378-4 0  9993","FILE":"3143202","MEAN_MOTION":"15.06392203","SEMIMAJOR_AXIS":"6925.372","REF_FRAME":"TEME","ELEMENT_SET_NO":"999","OBJECT_ID":"2021-036J","EPOCH":"2021-10-03T20:35:47.689440","REV_AT_EPOCH":"2446","RCS_SIZE":"LARGE","OBJECT_NAME":"STARLINK-2564","EPHEMERIS_TYPE":"0","COUNTRY_CODE":"US","ECCENTRICITY":"0.00023110","SITE":"AFETR","CENTER_NAME":"EARTH","PERIOD":"95.593","OBJECT_TYPE":"PAYLOAD","NORAD_CAT_ID":"48284"},{"REV_AT_EPOCH":"2446","RCS_SIZE":"LARGE","OBJECT_NAME":"STARLINK-2548","COUNTRY_CODE":"US","EPHEMERIS_TYPE":"0","ECCENTRICITY":"0.00019730","CENTER_NAME":"EARTH","SITE":"AFETR","PERIOD":"95.592","OBJECT_TYPE":"PAYLOAD","NORAD_CAT_ID":"48285","MEAN_ANOMALY":"270.0771","FILE":"3143202","TLE_LINE1":"1 48285U 21036K   21276.85449687  .00000009  00000-0  19512-4 0  9999","MEAN_MOTION":"15.06395633","SEMIMAJOR_AXIS":"6925.362","REF_FRAME":"TEME","ELEMENT_SET_NO":"999","OBJECT_ID":"2021-036K","EPOCH":"2021-10-03T20:30:28.529568","GP_ID":"186142744","RA_OF_ASC_NODE":"144.3823","APOAPSIS":"548.593","ARG_OF_PERICENTER":"90.0444","DECAY_DATE":null,"MEAN_MOTION_DOT":"0.00000009","TLE_LINE2":"2 48285  53.0494 144.3823 0001973  90.0444 270.0771 15.06395633 24461","LAUNCH_DATE":"2021-04-29","PERIAPSIS":"545.861","MEAN_ELEMENT_THEORY":"SGP4","TIME_SYSTEM":"UTC","INCLINATION":"53.0494","MEAN_MOTION_DDOT":"0.0000000000000","BSTAR":"0.00001951200000","CLASSIFICATION_TYPE":"U"},{"EPOCH":"2021-10-03T20:25:10.670880","OBJECT_ID":"2021-036L","ELEMENT_SET_NO":"999","REF_FRAME":"TEME","SEMIMAJOR_AXIS":"6925.388","MEAN_MOTION":"15.06387289","TLE_LINE1":"1 48286U 21036L   21276.85081795 -.00001211  00000-0 -62428-4 0  9994","FILE":"3143202","MEAN_ANOMALY":"280.6406","NORAD_CAT_ID":"48286","OBJECT_TYPE":"PAYLOAD","PERIOD":"95.593","CENTER_NAME":"EARTH","SITE":"AFETR","ECCENTRICITY":"0.00020830","EPHEMERIS_TYPE":"0","COUNTRY_CODE":"US","OBJECT_NAME":"STARLINK-2547","RCS_SIZE":"LARGE","REV_AT_EPOCH":"2446","CLASSIFICATION_TYPE":"U","BSTAR":"-0.00006242800000","MEAN_MOTION_DDOT":"0.0000000000000","INCLINATION":"53.0534","TIME_SYSTEM":"UTC","MEAN_ELEMENT_THEORY":"SGP4","PERIAPSIS":"545.810","TLE_LINE2":"2 48286  53.0534 144.3687 0002083  79.4817 280.6406 15.06387289 24463","LAUNCH_DATE":"2021-04-29","MEAN_MOTION_DOT":"-0.00001211","DECAY_DATE":null,"ARG_OF_PERICENTER":"79.4817","APOAPSIS":"548.695","RA_OF_ASC_NODE":"144.3687","GP_ID":"186141492"},{"PERIAPSIS":"545.821","MEAN_ELEMENT_THEORY":"SGP4","MEAN_MOTION_DOT":"-0.00001314","LAUNCH_DATE":"2021-04-29","TLE_LINE2":"2 48287  53.0546 144.3839 0002059  81.6796 278.4427 15.06389142 24468","CLASSIFICATION_TYPE":"U","TIME_SYSTEM":"UTC","INCLINATION":"53.0546","MEAN_MOTION_DDOT":"0.0000000000000","BSTAR":"-0.00006932500000","APOAPSIS":"548.673","RA_OF_ASC_NODE":"144.3839","ARG_OF_PERICENTER":"81.6796","GP_ID":"186141742","DECAY_DATE":null,"FILE":"3143202","TLE_LINE1":"1 48287U 21036M   21276.84713511 -.00001314  00000-0 -69325-4 0  9999","MEAN_MOTION":"15.06389142","SEMIMAJOR_AXIS":"6925.382","MEAN_ANOMALY":"278.4427","OBJECT_ID":"2021-036M","EPOCH":"2021-10-03T20:19:52.473504","REF_FRAME":"TEME","ELEMENT_SET_NO":"999","OBJECT_NAME":"STARLINK-2566","EPHEMERIS_TYPE":"0","COUNTRY_CODE":"US","REV_AT_EPOCH":"2446","RCS_SIZE":"LARGE","CENTER_NAME":"EARTH","SITE":"AFETR","PERIOD":"95.593","OBJECT_TYPE":"PAYLOAD","NORAD_CAT_ID":"48287","ECCENTRICITY":"0.00020590"},{"REF_FRAME":"TEME","ELEMENT_SET_NO":"999","OBJECT_ID":"2021-036N","EPOCH":"2021-10-03T20:14:34.263168","MEAN_ANOMALY":"278.2729","TLE_LINE1":"1 48288U 21036N   21276.84345212  .00000308  00000-0  39572-4 0  9990","FILE":"3143202","MEAN_MOTION":"15.06391259","SEMIMAJOR_AXIS":"6925.375","ECCENTRICITY":"0.00018250","SITE":"AFETR","CENTER_NAME":"EARTH","PERIOD":"95.593","OBJECT_TYPE":"PAYLOAD","NORAD_CAT_ID":"48288","REV_AT_EPOCH":"2446","RCS_SIZE":"LARGE","OBJECT_NAME":"STARLINK-2562","COUNTRY_CODE":"US","EPHEMERIS_TYPE":"0","TIME_SYSTEM":"UTC","INCLINATION":"53.0553","MEAN_MOTION_DDOT":"0.0000000000000","BSTAR":"0.00003957200000","CLASSIFICATION_TYPE":"U","MEAN_MOTION_DOT":"0.00000308","LAUNCH_DATE":"2021-04-29","TLE_LINE2":"2 48288  53.0553 144.4020 0001825  81.8467 278.2729 15.06391259 24462","PERIAPSIS":"545.976","MEAN_ELEMENT_THEORY":"SGP4","DECAY_DATE":null,"GP_ID":"186142980","APOAPSIS":"548.504","RA_OF_ASC_NODE":"144.4020","ARG_OF_PERICENTER":"81.8467"},{"RCS_SIZE":"LARGE","REV_AT_EPOCH":"2446","EPHEMERIS_TYPE":"0","COUNTRY_CODE":"US","OBJECT_NAME":"STARLINK-2545","ECCENTRICITY":"0.00021440","NORAD_CAT_ID":"48289","OBJECT_TYPE":"PAYLOAD","PERIOD":"95.593","SITE":"AFETR","CENTER_NAME":"EARTH","MEAN_ANOMALY":"275.8104","SEMIMAJOR_AXIS":"6925.393","MEAN_MOTION":"15.06385619","FILE":"3143202","TLE_LINE1":"1 48289U 21036P   21276.83976216 -.00001436  00000-0 -77505-4 0  9997","ELEMENT_SET_NO":"999","REF_FRAME":"TEME","EPOCH":"2021-10-03T20:09:15.450624","OBJECT_ID":"2021-036P","GP_ID":"186143231","ARG_OF_PERICENTER":"84.3130","APOAPSIS":"548.742","RA_OF_ASC_NODE":"144.4205","DECAY_DATE":null,"LAUNCH_DATE":"2021-04-29","TLE_LINE2":"2 48289  53.0539 144.4205 0002144  84.3130 275.8104 15.06385619 24465","MEAN_MOTION_DOT":"-0.00001436","MEAN_ELEMENT_THEORY":"SGP4","PERIAPSIS":"545.773","MEAN_MOTION_DDOT":"0.0000000000000","BSTAR":"-0.00007750500000","INCLINATION":"53.0539","TIME_SYSTEM":"UTC","CLASSIFICATION_TYPE":"U"},{"OBJECT_NAME":"STARLINK-2540","COUNTRY_CODE":"US","EPHEMERIS_TYPE":"0","RCS_SIZE":"LARGE","REV_AT_EPOCH":"2447","OBJECT_TYPE":"PAYLOAD","NORAD_CAT_ID":"48290","CENTER_NAME":"EARTH","SITE":"AFETR","PERIOD":"95.593","ECCENTRICITY":"0.00018940","MEAN_MOTION":"15.06389381","SEMIMAJOR_AXIS":"6925.381","FILE":"3143202","TLE_LINE1":"1 48290U 21036Q   21276.90242309 -.00001692  00000-0 -94754-4 0  9995","MEAN_ANOMALY":"277.0585","OBJECT_ID":"2021-036Q","EPOCH":"2021-10-03T21:39:29.354976","ELEMENT_SET_NO":"999","REF_FRAME":"TEME","ARG_OF_PERICENTER":"83.0619","RA_OF_ASC_NODE":"144.1578","APOAPSIS":"548.558","GP_ID":"186141979","DECAY_DATE":null,"MEAN_ELEMENT_THEORY":"SGP4","PERIAPSIS":"545.934","MEAN_MOTION_DOT":"-0.00001692","TLE_LINE2":"2 48290  53.0544 144.1578 0001894  83.0619 277.0585 15.06389381 24470","LAUNCH_DATE":"2021-04-29","CLASSIFICATION_TYPE":"U","MEAN_MOTION_DDOT":"0.0000000000000","BSTAR":"-0.00009475400000","TIME_SYSTEM":"UTC","INCLINATION":"53.0544"},{"DECAY_DATE":null,"GP_ID":"186142229","ARG_OF_PERICENTER":"83.0652","APOAPSIS":"548.693","RA_OF_ASC_NODE":"144.1644","BSTAR":"0.00004130000000","MEAN_MOTION_DDOT":"0.0000000000000","TIME_SYSTEM":"UTC","INCLINATION":"53.0543","CLASSIFICATION_TYPE":"U","MEAN_MOTION_DOT":"0.00000333","TLE_LINE2":"2 48291  53.0543 144.1644 0002143  83.0652 277.0581 15.06401380 24479","LAUNCH_DATE":"2021-04-29","MEAN_ELEMENT_THEORY":"SGP4","PERIAPSIS":"545.725","ECCENTRICITY":"0.00021430","OBJECT_TYPE":"PAYLOAD","NORAD_CAT_ID":"48291","SITE":"AFETR","CENTER_NAME":"EARTH","PERIOD":"95.592","RCS_SIZE":"MEDIUM","REV_AT_EPOCH":"2447","OBJECT_NAME":"STARLINK-2555","COUNTRY_CODE":"US","EPHEMERIS_TYPE":"0","ELEMENT_SET_NO":"999","REF_FRAME":"TEME","OBJECT_ID":"2021-036R","EPOCH":"2021-10-03T21:34:10.291008","MEAN_ANOMALY":"277.0581","MEAN_MOTION":"15.06401380","SEMIMAJOR_AXIS":"6925.344","TLE_LINE1":"1 48291U 21036R   21276.89873022  .00000333  00000-0  41300-4 0  9994","FILE":"3143202"},{"SEMIMAJOR_AXIS":"6925.380","MEAN_MOTION":"15.06389699","TLE_LINE1":"1 48292U 21036S   21276.89410830  .00000662  00000-0  63339-4 0  9990","FILE":"3143202","MEAN_ANOMALY":"286.0137","EPOCH":"2021-10-03T21:27:30.957120","OBJECT_ID":"2021-036S","ELEMENT_SET_NO":"999","REF_FRAME":"TEME","EPHEMERIS_TYPE":"0","COUNTRY_CODE":"US","OBJECT_NAME":"STARLINK-2542","RCS_SIZE":"LARGE","REV_AT_EPOCH":"2447","NORAD_CAT_ID":"48292","OBJECT_TYPE":"PAYLOAD","PERIOD":"95.593","SITE":"AFETR","CENTER_NAME":"EARTH","ECCENTRICITY":"0.00019380","MEAN_ELEMENT_THEORY":"SGP4","PERIAPSIS":"545.903","LAUNCH_DATE":"2021-04-29","TLE_LINE2":"2 48292  53.0544 144.1807 0001938  74.1066 286.0137 15.06389699 24478","MEAN_MOTION_DOT":"0.00000662","CLASSIFICATION_TYPE":"U","BSTAR":"0.00006333900000","MEAN_MOTION_DDOT":"0.0000000000000","INCLINATION":"53.0544","TIME_SYSTEM":"UTC","ARG_OF_PERICENTER":"74.1066","RA_OF_ASC_NODE":"144.1807","APOAPSIS":"548.587","GP_ID":"186142494","DECAY_DATE":null}];
